ONEWEB-0363             
1 49289U 21090L   25028.92743143  .00000045  00000+0  77972-4 0  9998
2 49289  87.9262  14.7659 0001588  73.5040 286.6268 13.20768405163746
ONEWEB-0364             
1 49290U 21090M   25029.19258126  .00000030  00000+0  42163-4 0  9990
2 49290  87.9264  14.7416 0001661  85.6331 274.4992 13.20770307165734
ONEWEB-0365             
1 49291U 21090N   25029.08084545  .00000039  00000+0  66095-4 0  9990
2 49291  87.9141  45.1672 0001901  95.2826 264.8524 13.19723464161228
ONEWEB-0366             
1 49292U 21090P   25029.23169357  .00000079  00000+0  17893-3 0  9998
2 49292  87.8993  29.9190 0001701  87.8371 272.2954 13.14501769162653
ONEWEB-0367             
1 49293U 21090Q   25029.00160645  .00000062  00000+0  12099-3 0  9990
2 49293  87.9263  14.7461 0001789  89.8513 270.2825 13.20774593164576
ONEWEB-0368             
1 49294U 21090R   25029.20204885 -.00000036  00000+0 -12146-3 0  9994
2 49294  87.9266  14.7385 0001002 101.2915 258.8331 13.20773412165752
ONEWEB-0369             
1 49295U 21090S   25029.07610701  .00000024  00000+0  26617-4 0  9992
2 49295  87.9146  45.1867 0001846  95.1986 264.9357 13.19723543161219
ONEWEB-0370             
1 49296U 21090T   25029.23837587 -.00000062  00000+0 -18396-3 0  9992
2 49296  87.9264  14.7040 0002197  85.3564 274.7820 13.20769741164645
